STARLINK-1377
1 25547C 20025S   21325.11007734 -.00001344  00000-0 -90022-4 0  3254
2 25547  53.0524 312.7339 0001731  54.6598  63.8791 15.06402697    18
